{"type": "FeatureCollection", "features": [{"type": "Feature", "geometry": {"type": "LineString", "coordinates": [[-79.4160701, 43.7816297], [-79.4159064, 43.7816794], [-79.4158236, 43.7817206], [-79.4155917, 43.7817712], [-79.4154202, 43.7818086], [-79.4152474, 43.781847], [-79.4150774, 43.7818838], [-79.4149359, 43.7819146], [-79.4141844, 43.7820807], [-79.4140635, 43.7821079], [-79.4139512, 43.7821318], [-79.4138673, 43.7821496], [-79.4130805, 43.7823162], [-79.4126236, 43.7824092], [-79.4104685, 43.7828779], [-79.4088883, 43.7832227], [-79.408004, 43.7834396], [-79.4078792, 43.7834635], [-79.4077359, 43.7834878], [-79.4068417, 43.7836722], [-79.406205, 43.7838102], [-79.4052316, 43.7840196], [-79.4018658, 43.7847551], [-79.4003709, 43.7850818], [-79.4001869, 43.7851212], [-79.4001559, 43.7851274], [-79.4000482, 43.7851478]]}, "properties": {"id": "bishop-yonge-maxome", "label": "Bishop Avenue (Yonge Street to Maxome Avenue)", "street": "Bishop Avenue", "from_street": "Yonge Street", "to_street": "Maxome Avenue", "existing_row_m": 23, "planned_row_m": 23, "travel_width_m": 14.2, "travel_width_varies": true, "lanes": 4, "typical_width_m": 12.6, "excess_pavement_m": 1.6, "kind": "row", "color": "#c47a3a"}}, {"type": "Feature", "geometry": {"type": "LineString", "coordinates": [[-79.4140403, 43.7737904], [-79.4138687, 43.7738265], [-79.4136339, 43.773876], [-79.4135342, 43.773897], [-79.4134072, 43.7739237], [-79.4130982, 43.7739888], [-79.4129018, 43.7740302], [-79.4126845, 43.774076], [-79.412536, 43.7741052], [-79.4123707, 43.7741433], [-79.4123199, 43.7741547]]}, "properties": {"id": "church-yonge-doris", "label": "Church Avenue (Yonge Street to Doris Avenue)", "street": "Church Avenue", "from_street": "Yonge Street", "to_street": "Doris Avenue", "existing_row_m": 30, "planned_row_m": 30, "travel_width_m": 12.7, "travel_width_varies": false, "lanes": 4, "typical_width_m": 12.6, "excess_pavement_m": 0.1, "kind": "row", "color": "#4c6b58"}}, {"type": "Feature", "geometry": {"type": "LineString", "coordinates": [[-79.4162397, 43.7684312], [-79.4162483, 43.7684533], [-79.4162809, 43.7685404], [-79.4163287, 43.7686504], [-79.4163388, 43.7686735], [-79.4163839, 43.7687724], [-79.416404, 43.7688233], [-79.4164226, 43.7688752], [-79.4164363, 43.7689134], [-79.4164484, 43.7689528], [-79.4164686, 43.7690326], [-79.4164867, 43.7691251], [-79.4164993, 43.7692177], [-79.4165086, 43.7693122], [-79.4165135, 43.7694067], [-79.4165157, 43.7694905], [-79.4165176, 43.7695603], [-79.4165481, 43.7700941], [-79.4165713, 43.7704262], [-79.4165789, 43.7705159], [-79.416587, 43.7706288], [-79.4166038, 43.7708503], [-79.4166066, 43.7708877], [-79.4166184, 43.7710433], [-79.4166215, 43.7710792], [-79.4166248, 43.7711516], [-79.4166294, 43.7712493]]}, "properties": {"id": "beecroft-ellerslie-parkhome", "label": "Beecroft Road (Ellerslie Avenue to Park Home Avenue)", "street": "Beecroft Road", "from_street": "Ellerslie Avenue", "to_street": "Park Home Avenue", "existing_row_m": 30, "planned_row_m": 30, "travel_width_m": 16.9, "travel_width_varies": true, "lanes": 5, "typical_width_m": 15.6, "excess_pavement_m": 1.3, "kind": "row", "color": "#c47a3a"}}, {"type": "Feature", "geometry": {"type": "LineString", "coordinates": [[-79.4144955, 43.7642752], [-79.4145475, 43.7643981], [-79.4146115, 43.7645494], [-79.4146595, 43.7646629], [-79.4147601, 43.7648993], [-79.414831, 43.7650658], [-79.4148682, 43.7651532], [-79.4149268, 43.7652908], [-79.4149775, 43.7654099], [-79.4150386, 43.7655535], [-79.4151352, 43.7657805], [-79.4153375, 43.766255], [-79.4153807, 43.7663537], [-79.4154244, 43.7664611], [-79.415513, 43.7666763], [-79.4155253, 43.7667048], [-79.4156249, 43.766942], [-79.4156933, 43.7671049], [-79.4157789, 43.7673071], [-79.4158551, 43.7674871], [-79.4158718, 43.7675251], [-79.4158833, 43.767554], [-79.4159205, 43.7676469], [-79.416001, 43.7678446], [-79.4160814, 43.7680423], [-79.4160946, 43.7680746], [-79.4162397, 43.7684312], [-79.4162483, 43.7684533], [-79.4162809, 43.7685404], [-79.4163287, 43.7686504], [-79.4163388, 43.7686735]]}, "properties": {"id": "beecroft-parkhome-n-elmhurst", "label": "Beecroft Road (Park Home Avenue to 200 m north of Elmhurst Avenue)", "street": "Beecroft Road", "from_street": "Park Home Avenue", "existing_row_m": 27, "planned_row_m": 27, "travel_width_m": 16.2, "travel_width_varies": true, "lanes": 5, "typical_width_m": 15.6, "excess_pavement_m": 0.6, "kind": "row", "color": "#c4a35a"}}, {"type": "Feature", "geometry": {"type": "LineString", "coordinates": [[-79.4146115, 43.7645494], [-79.4145475, 43.7643981], [-79.4144955, 43.7642752], [-79.4144354, 43.7641337], [-79.4143646, 43.7639672], [-79.4142399, 43.7636736], [-79.4141372, 43.7634319], [-79.4141105, 43.7633691], [-79.4140451, 43.7632118], [-79.4140328, 43.7631828], [-79.4139798, 43.7630583], [-79.4139458, 43.7629783], [-79.4138331, 43.762713], [-79.4138019, 43.7626401], [-79.4137693, 43.7625596], [-79.4137501, 43.7625151], [-79.4136906, 43.7623751], [-79.4136651, 43.7623152], [-79.4135854, 43.7621278], [-79.4135742, 43.7621014], [-79.4134885, 43.7619], [-79.413469, 43.7618478], [-79.4134309, 43.7617464], [-79.4133909, 43.7616272], [-79.4133663, 43.7615632], [-79.4132726, 43.7613467], [-79.4132267, 43.7612418], [-79.4131902, 43.7611681], [-79.4131771, 43.7611417], [-79.4131151, 43.761041], [-79.4130118, 43.7609091], [-79.4129928, 43.7608872]]}, "properties": {"id": "beecroft-n-elmhurst-sheppard", "label": "Beecroft Road (200 m north of Elmhurst Avenue to Sheppard Avenue West)", "street": "Beecroft Road", "to_street": "Sheppard Avenue West", "existing_row_m": 36, "planned_row_m": 36, "travel_width_m": 16.5, "travel_width_varies": true, "lanes": 5, "typical_width_m": 15.6, "excess_pavement_m": 0.9, "kind": "row", "color": "#c4a35a"}}, {"type": "Feature", "geometry": {"type": "LineString", "coordinates": [[-79.4121494, 43.7596117], [-79.4121927, 43.75971], [-79.4122029, 43.759733], [-79.4124414, 43.7602911], [-79.4124609, 43.7603232], [-79.4124825, 43.7603546], [-79.4125204, 43.7603991], [-79.4126491, 43.7605379], [-79.4127145, 43.7606062], [-79.412783, 43.7606745], [-79.4129144, 43.7608016], [-79.4129928, 43.7608872], [-79.4130118, 43.7609091], [-79.4131151, 43.761041], [-79.4131771, 43.7611417], [-79.4131902, 43.7611681]]}, "properties": {"id": "beecroft-sheppard-poyntz", "label": "Beecroft Road (Sheppard Avenue West to Poyntz Avenue)", "street": "Beecroft Road", "from_street": "Sheppard Avenue West", "to_street": "Poyntz Avenue", "existing_row_m": 27, "planned_row_m": 27, "travel_width_m": 13.3, "travel_width_varies": true, "lanes": 4, "typical_width_m": 12.6, "excess_pavement_m": 0.7, "kind": "row", "color": "#c4a35a"}}, {"type": "Feature", "geometry": {"type": "LineString", "coordinates": [[-79.4164391, 43.7684977], [-79.4162809, 43.7685404], [-79.4161246, 43.7685806], [-79.4155966, 43.7686987], [-79.4153787, 43.7687475], [-79.4147485, 43.7688885], [-79.414565, 43.7689295], [-79.4142411, 43.7690022], [-79.4140659, 43.7690412], [-79.4130849, 43.7692581], [-79.4129763, 43.7692753]]}, "properties": {"id": "parkhome-beecroft-yonge", "label": "Park Home Avenue (Beecroft Road to Yonge Street)", "street": "Park Home Avenue", "from_street": "Beecroft Road", "to_street": "Yonge Street", "existing_row_m": 27, "planned_row_m": 27, "travel_width_m": 18.1, "travel_width_varies": false, "lanes": 5, "typical_width_m": 15.6, "excess_pavement_m": 2.5, "kind": "row", "color": "#b42318"}}, {"type": "Feature", "geometry": {"type": "LineString", "coordinates": [[-79.4128404, 43.7666246], [-79.4127524, 43.7666011], [-79.4126619, 43.7666103], [-79.4125278, 43.7666113], [-79.4124323, 43.766607], [-79.4123057, 43.7666297], [-79.4124501, 43.7666783], [-79.4125148, 43.7666836], [-79.4125737, 43.7666873], [-79.4126594, 43.766685], [-79.4127682, 43.766675], [-79.4128404, 43.7666246], [-79.4130146, 43.7665837], [-79.4131725, 43.7665445], [-79.4132525, 43.7665279], [-79.4133342, 43.7665138], [-79.4133695, 43.76651], [-79.4134057, 43.766508], [-79.4134423, 43.7665076], [-79.4134788, 43.7665091], [-79.4135495, 43.7665181], [-79.4137381, 43.7665562], [-79.4138846, 43.7665863], [-79.4139876, 43.7666043], [-79.4140318, 43.7666068], [-79.4140752, 43.7666068], [-79.4141811, 43.7666], [-79.4142712, 43.7665894], [-79.4143568, 43.766573], [-79.414698, 43.7665061], [-79.4150066, 43.7664356], [-79.4150902, 43.766418], [-79.415238, 43.7663847], [-79.4153807, 43.7663537]]}, "properties": {"id": "nyb-beecroft-yonge", "label": "North York Boulevard (Beecroft Road to Yonge Street)", "street": "North York Boulevard", "from_street": "Beecroft Road", "to_street": "Yonge Street", "existing_row_m": 30, "planned_row_m": 30, "travel_width_m": 12.6, "travel_width_varies": true, "lanes": 4, "typical_width_m": 12.6, "excess_pavement_m": 0.0, "kind": "row", "color": "#4c6b58"}}, {"type": "Feature", "geometry": {"type": "MultiLineString", "coordinates": [[[-79.4114587, 43.7632633], [-79.4115801, 43.763221], [-79.4116096, 43.7632105], [-79.4117579, 43.7631653], [-79.4118378, 43.763141], [-79.4121212, 43.7630475], [-79.4123265, 43.7629813], [-79.4124155, 43.7629551], [-79.4124715, 43.7629398], [-79.4125277, 43.7629249], [-79.4126175, 43.7629043], [-79.4126611, 43.7628945], [-79.4130437, 43.7628089], [-79.4135261, 43.7627009], [-79.4136316, 43.7626773], [-79.4136729, 43.7626684], [-79.4138019, 43.7626401]], [[-79.4139122, 43.7624741], [-79.4139786, 43.7625325], [-79.4140295, 43.7625576]]]}, "properties": {"id": "elmhurst-beecroft-yonge", "label": "Elmhurst Avenue (Beecroft Road to Yonge Street)", "street": "Elmhurst Avenue", "from_street": "Beecroft Road", "to_street": "Yonge Street", "existing_row_m": 27, "planned_row_m": 27, "travel_width_m": 12.9, "travel_width_varies": false, "lanes": 4, "typical_width_m": 12.6, "excess_pavement_m": 0.3, "kind": "row", "color": "#4c6b58"}}, {"type": "Feature", "geometry": {"type": "LineString", "coordinates": [[-79.410554, 43.7600139], [-79.4106256, 43.7599882], [-79.4107324, 43.7599568], [-79.4110809, 43.7598699], [-79.411201, 43.7598423], [-79.4116358, 43.759744], [-79.4119438, 43.7596706], [-79.4121494, 43.7596117], [-79.4122568, 43.7595774], [-79.4123315, 43.75956]]}, "properties": {"id": "poyntz-beecroft-yonge", "label": "Poyntz Avenue (Beecroft Road to Yonge Street)", "street": "Poyntz Avenue", "from_street": "Beecroft Road", "to_street": "Yonge Street", "existing_row_m": 30, "planned_row_m": 30, "travel_width_m": 14.3, "travel_width_varies": false, "lanes": 4, "typical_width_m": 12.6, "excess_pavement_m": 1.7, "kind": "row", "color": "#c47a3a"}}, {"type": "Feature", "geometry": {"type": "LineString", "coordinates": [[-79.4093469, 43.7662562], [-79.4093809, 43.7663362], [-79.4096682, 43.7670197], [-79.4097099, 43.7671196], [-79.4097372, 43.7671815], [-79.409745, 43.767199], [-79.4099025, 43.7675724], [-79.4100669, 43.7679665], [-79.4100828, 43.7680067], [-79.4101089, 43.7680675], [-79.4103356, 43.7686034], [-79.4104608, 43.7689029], [-79.4104929, 43.7689797], [-79.4105559, 43.7691562], [-79.4105957, 43.7692635], [-79.4106393, 43.7693813], [-79.4107528, 43.7696591], [-79.4107877, 43.7697397], [-79.4108277, 43.7698168], [-79.4110279, 43.7702584], [-79.411134, 43.7704922], [-79.411178, 43.7705737], [-79.4112178, 43.7706465], [-79.4114049, 43.7709961], [-79.411578, 43.7713203], [-79.4116073, 43.7713733], [-79.4116493, 43.7714566], [-79.4116953, 43.7715585], [-79.41187, 43.771972], [-79.4120509, 43.7724001], [-79.412086, 43.7724841]]}, "properties": {"id": "doris-norton-hollywood", "label": "Doris Avenue (Norton Avenue to Hollywood Avenue)", "street": "Doris Avenue", "from_street": "Norton Avenue", "to_street": "Hollywood Avenue", "existing_row_m": 36, "planned_row_m": 36, "travel_width_m": 13.2, "travel_width_varies": false, "lanes": 4, "typical_width_m": 12.6, "excess_pavement_m": 0.6, "kind": "row", "color": "#c4a35a"}}, {"type": "Feature", "geometry": {"type": "LineString", "coordinates": [[-79.4082571, 43.7621083], [-79.4083003, 43.7622464], [-79.4083074, 43.762271], [-79.4084071, 43.7626489], [-79.4084643, 43.7628656], [-79.4084807, 43.7629308], [-79.4085668, 43.763269], [-79.408627, 43.7635047], [-79.4086324, 43.7635292], [-79.4086389, 43.7635602], [-79.4086446, 43.7635918], [-79.4086477, 43.7636181], [-79.4086498, 43.7636444], [-79.4086503, 43.7636978], [-79.4086434, 43.763811], [-79.4085587, 43.7639465], [-79.4084941, 43.7640456], [-79.4084799, 43.7640645], [-79.4084639, 43.76409], [-79.4084492, 43.764116], [-79.4084364, 43.764143], [-79.4084258, 43.76417], [-79.4084162, 43.7642011], [-79.4084087, 43.7642333], [-79.4084048, 43.7642573], [-79.408402, 43.764282], [-79.4084009, 43.7643068], [-79.4084019, 43.7643325], [-79.4084061, 43.7643686], [-79.4084133, 43.764405], [-79.4084235, 43.7644418], [-79.4084425, 43.7644944], [-79.4084643, 43.7645477], [-79.4086172, 43.7649114], [-79.4086217, 43.7649212], [-79.4086451, 43.7649702], [-79.4086836, 43.7650506], [-79.408708, 43.7650943], [-79.4090156, 43.765643], [-79.4090401, 43.7656874], [-79.4090896, 43.7657741], [-79.4091636, 43.7659042], [-79.4093016, 43.7661575], [-79.4093469, 43.7662562], [-79.4093809, 43.7663362]]}, "properties": {"id": "doris-hollywood-sheppard", "label": "Doris Avenue (Hollywood Avenue to Sheppard Avenue East)", "street": "Doris Avenue", "from_street": "Hollywood Avenue", "to_street": "Sheppard Avenue East", "existing_row_m": 27, "planned_row_m": 27, "travel_width_m": 13.2, "travel_width_varies": false, "lanes": 4, "typical_width_m": 12.6, "excess_pavement_m": 0.6, "kind": "row", "color": "#c4a35a"}}, {"type": "Feature", "geometry": {"type": "LineString", "coordinates": [[-79.4085587, 43.7639465], [-79.4087179, 43.7639128], [-79.4092119, 43.7638055], [-79.4100813, 43.7636109], [-79.410381, 43.7635438], [-79.41085, 43.7634333], [-79.4111825, 43.763359], [-79.4112125, 43.7633486], [-79.4112966, 43.7633188], [-79.4114587, 43.7632633]]}, "properties": {"id": "greenfield-yonge-doris", "label": "Greenfield Avenue (Yonge Street to Doris Avenue)", "street": "Greenfield Avenue", "from_street": "Yonge Street", "to_street": "Doris Avenue", "existing_row_m": 27, "planned_row_m": 27, "travel_width_m": 12.8, "travel_width_varies": false, "lanes": 4, "typical_width_m": 12.6, "excess_pavement_m": 0.2, "kind": "row", "color": "#4c6b58"}}, {"type": "Feature", "geometry": {"type": "LineString", "coordinates": [[-79.4100956, 43.758218], [-79.4100152, 43.7582214], [-79.4098671, 43.7582295], [-79.4094382, 43.7583289], [-79.4089835, 43.7584326], [-79.4089524, 43.7584395], [-79.4088597, 43.7584601], [-79.4087746, 43.7584791], [-79.407653, 43.7587263], [-79.4076241, 43.7587327], [-79.4075207, 43.7587554], [-79.407418, 43.7587785], [-79.4073896, 43.7587851], [-79.4063012, 43.7590268], [-79.406231, 43.7590486], [-79.4061492, 43.7590733], [-79.4060158, 43.7591145]]}, "properties": {"id": "avondale-yonge-service", "label": "Avondale Avenue (Yonge Street to South Downtown Service Road)", "street": "Avondale Avenue", "from_street": "Yonge Street", "to_street": "Tradewind Avenue", "to_note": "Mapped to Tradewind Avenue; the report names South Downtown Service Road.", "existing_row_m": 27, "planned_row_m": 27, "travel_width_m": 13.8, "travel_width_varies": false, "lanes": 4, "typical_width_m": 12.6, "excess_pavement_m": 1.2, "kind": "row", "color": "#c47a3a"}}, {"type": "Feature", "geometry": {"type": "MultiLineString", "coordinates": [[[-79.4418367, 43.7739772], [-79.4420661, 43.7739885], [-79.4424031, 43.7739472], [-79.4427864, 43.7739045], [-79.4429074, 43.7738957], [-79.443056, 43.7738842], [-79.4431887, 43.7738748], [-79.4438587, 43.7737931], [-79.4439158, 43.7737263], [-79.4438335, 43.7736879], [-79.4433592, 43.7737422], [-79.4431618, 43.7737648], [-79.4430308, 43.7737804], [-79.4428819, 43.7737991], [-79.4427639, 43.7738138], [-79.4420594, 43.7738972], [-79.4418367, 43.7739772], [-79.4413393, 43.7740566], [-79.4410136, 43.7741141], [-79.4406669, 43.7741831], [-79.440285, 43.7742655], [-79.4399351, 43.7743445], [-79.4397705, 43.774381], [-79.4388297, 43.7745897], [-79.4383102, 43.7747058], [-79.4377314, 43.7748362], [-79.4373629, 43.7749195], [-79.436467, 43.7751179], [-79.4350078, 43.7754413], [-79.4345764, 43.7755375], [-79.4338797, 43.7756929], [-79.4327334, 43.7759484], [-79.4323777, 43.7760282], [-79.4321934, 43.7760692], [-79.4317463, 43.7761681], [-79.4307441, 43.7763919], [-79.4305504, 43.7763831], [-79.4303333, 43.7764307], [-79.4302207, 43.7764564], [-79.4300997, 43.7764825], [-79.4298743, 43.7765326], [-79.4297718, 43.7766039], [-79.4299053, 43.7766193], [-79.4301318, 43.7765682], [-79.4302577, 43.776549], [-79.4303766, 43.7765316], [-79.4305844, 43.7764846], [-79.4307441, 43.7763919]], [[-79.456208, 43.771194], [-79.4557213, 43.7713031], [-79.4548596, 43.7714867], [-79.4545249, 43.7715566], [-79.4544309, 43.7715762], [-79.4543194, 43.7716011], [-79.4541461, 43.7716397], [-79.4537758, 43.7717118], [-79.4537311, 43.7717212], [-79.4525741, 43.7719643], [-79.4517377, 43.77214], [-79.4513798, 43.772213], [-79.4512577, 43.7722399], [-79.4510474, 43.7722863], [-79.4509401, 43.7723076], [-79.4507867, 43.7723368], [-79.4503672, 43.7724204], [-79.4501299, 43.7724677], [-79.4497556, 43.7725417], [-79.4490632, 43.7726786], [-79.4488152, 43.7727272], [-79.4483286, 43.772824], [-79.4482036, 43.7728485], [-79.4480929, 43.7728734], [-79.4475753, 43.7729906], [-79.4468286, 43.7731669], [-79.4465067, 43.7732372], [-79.4453048, 43.7735107], [-79.4450794, 43.7735585], [-79.4447667, 43.7735882], [-79.4446516, 43.7736069], [-79.4444165, 43.7736451], [-79.4439158, 43.7737263]], [[-79.4164998, 43.7795672], [-79.4163612, 43.7796472], [-79.4157565, 43.7797841], [-79.4156124, 43.779756], [-79.4157385, 43.7796955], [-79.4163273, 43.7795621], [-79.4164998, 43.7795672], [-79.4166845, 43.7795251], [-79.4167313, 43.7795144], [-79.4168816, 43.7794803], [-79.4174434, 43.7793529], [-79.4179343, 43.7792425], [-79.4183451, 43.7791501], [-79.4184843, 43.7791191], [-79.418639, 43.7790825], [-79.4189478, 43.7790156], [-79.4193751, 43.7789232], [-79.4195718, 43.7788807], [-79.420312, 43.7787146], [-79.4206315, 43.7786431], [-79.4215431, 43.7784391], [-79.4216187, 43.778422], [-79.4217392, 43.7783952], [-79.4220707, 43.7783216], [-79.4222307, 43.7782838], [-79.4223615, 43.7782544], [-79.4225764, 43.7782061], [-79.4226773, 43.7781353], [-79.4228492, 43.7780978], [-79.4229497, 43.7780835], [-79.4230471, 43.7780673], [-79.423266, 43.7780174], [-79.4233624, 43.778035], [-79.4235095, 43.7780026], [-79.4236431, 43.7779731], [-79.4240941, 43.7778713], [-79.4242785, 43.7778303], [-79.4244837, 43.7777834], [-79.4253947, 43.7775819], [-79.4258591, 43.7774788], [-79.426503, 43.7773359], [-79.4266385, 43.7773055], [-79.4269769, 43.7772296], [-79.427064, 43.7772102], [-79.4271717, 43.7771868], [-79.4277918, 43.7770501], [-79.4290993, 43.7767582], [-79.4296171, 43.7766394], [-79.4297718, 43.7766039]], [[-79.4233624, 43.778035], [-79.4232852, 43.7781071], [-79.4230796, 43.7781522], [-79.4229775, 43.7781669], [-79.4228779, 43.7781811], [-79.4227118, 43.778217], [-79.4225764, 43.7782061]]]}, "properties": {"id": "finch-west-of-yonge", "label": "Finch Avenue West (west of Yonge Street)", "street": "Finch Avenue West", "from_street": "Yonge Street", "direction": "west", "existing_row_m": 36, "planned_row_m": 36, "travel_width_m": 17.5, "travel_width_varies": true, "lanes": 5, "typical_width_m": 15.6, "excess_pavement_m": 1.9, "kind": "row", "color": "#c47a3a"}}, {"type": "Feature", "geometry": {"type": "MultiLineString", "coordinates": [[[-79.4154454, 43.7797909], [-79.4153702, 43.7798098], [-79.4149175, 43.7799133], [-79.4146419, 43.7799767], [-79.4143069, 43.7800495], [-79.4138546, 43.7801459], [-79.4131779, 43.7802902], [-79.412768, 43.7803776], [-79.4126895, 43.7804477], [-79.4125325, 43.7804822], [-79.412351, 43.7805207], [-79.4122288, 43.7805409], [-79.4118128, 43.7806328], [-79.4116754, 43.7806259], [-79.411349, 43.7806961], [-79.4107319, 43.7808307], [-79.4105622, 43.7808681], [-79.4102407, 43.780939], [-79.4101463, 43.7809598], [-79.4097065, 43.7810567], [-79.4093877, 43.7811267], [-79.4092286, 43.7811611], [-79.4087753, 43.7812591], [-79.4082925, 43.781367], [-79.4072803, 43.7815871], [-79.4072441, 43.7815953], [-79.407097, 43.7816287], [-79.4069754, 43.7816552], [-79.4069369, 43.7816624], [-79.4067886, 43.7816896], [-79.4060776, 43.7818201], [-79.405898, 43.781853], [-79.4054537, 43.7819477], [-79.4044831, 43.7821891], [-79.4031714, 43.7824717], [-79.4018699, 43.7827521], [-79.4009528, 43.782957], [-79.4005923, 43.7830381], [-79.4001333, 43.7831408], [-79.3994413, 43.7832957], [-79.3994139, 43.7833018], [-79.399295, 43.7833284], [-79.3991774, 43.7833541], [-79.3987297, 43.7834516], [-79.3983958, 43.7835259], [-79.3979674, 43.7836177], [-79.3970431, 43.7838191], [-79.396299, 43.7839812], [-79.3959561, 43.7840472], [-79.3955212, 43.7841451], [-79.3947202, 43.7843261], [-79.3946788, 43.7843353], [-79.394059, 43.7844729], [-79.3938758, 43.7845136], [-79.3933214, 43.7846489], [-79.3931696, 43.784687], [-79.3930723, 43.7847163], [-79.3927618, 43.7848102], [-79.3923321, 43.7849481], [-79.3922238, 43.7849737], [-79.3921476, 43.7849956], [-79.3920727, 43.7850171], [-79.3918979, 43.7850618], [-79.3914909, 43.7851659], [-79.3913634, 43.7851957], [-79.3908075, 43.7853259], [-79.390558, 43.7853845], [-79.3900325, 43.7855095], [-79.3894597, 43.7856367], [-79.3890539, 43.7857268], [-79.3870294, 43.7861623], [-79.386818, 43.7861548], [-79.3867096, 43.786179], [-79.3866245, 43.7861981], [-79.3865415, 43.7862165], [-79.3863061, 43.7862688], [-79.386105, 43.7863646], [-79.386333, 43.7863688], [-79.3865849, 43.7863143], [-79.3866734, 43.7862951], [-79.3867503, 43.7862752], [-79.3868719, 43.7862438], [-79.3870294, 43.7861623]], [[-79.3810783, 43.7874692], [-79.3809474, 43.7874512], [-79.3807684, 43.7874847], [-79.380738, 43.7874904], [-79.3806799, 43.7875564], [-79.3807805, 43.7875707], [-79.3809667, 43.7875269], [-79.381009, 43.7875203], [-79.3810783, 43.7874692], [-79.3811266, 43.7874586], [-79.3812866, 43.7874236], [-79.3816266, 43.7873492], [-79.3843696, 43.786749], [-79.386105, 43.7863646]], [[-79.376247, 43.7885137], [-79.3781897, 43.7880948], [-79.3802077, 43.7876699], [-79.3802302, 43.7876652], [-79.3803641, 43.7876341], [-79.3805768, 43.7875847], [-79.3806799, 43.7875564]], [[-79.412768, 43.7803776], [-79.4126577, 43.7803548], [-79.4125007, 43.7803896], [-79.4123139, 43.780431], [-79.4121953, 43.780461], [-79.4117682, 43.7805539], [-79.4116754, 43.7806259]]]}, "properties": {"id": "finch-east-of-yonge", "label": "Finch Avenue East (east of Yonge Street)", "street": "Finch Avenue East", "from_street": "Yonge Street", "direction": "east", "existing_row_m": 36, "planned_row_m": 36, "travel_width_m": 17.2, "travel_width_varies": true, "lanes": 5, "typical_width_m": 15.6, "excess_pavement_m": 1.6, "kind": "row", "color": "#c47a3a"}}, {"type": "Feature", "geometry": {"type": "MultiLineString", "coordinates": [[[-79.410834, 43.7614677], [-79.410672, 43.7615], [-79.4099, 43.7616743], [-79.4098624, 43.7617403], [-79.409751, 43.7617654], [-79.4095815, 43.7618037], [-79.4091435, 43.7619045], [-79.4084175, 43.7620717], [-79.4082571, 43.7621083], [-79.4078833, 43.7621934], [-79.4071728, 43.7623524]], [[-79.4108588, 43.7615911], [-79.4107017, 43.761621], [-79.4099513, 43.761786], [-79.4098624, 43.7617403]]]}, "properties": {"id": "sheppard-east-yonge-bonnington", "label": "Sheppard Avenue East (Yonge Street to Bonnington Place)", "street": "Sheppard Avenue East", "from_street": "Yonge Street", "to_street": "Bonnington Place", "existing_row_m": 36, "planned_row_m": 36, "travel_width_m": 25.6, "travel_width_varies": true, "lanes": 7, "typical_width_m": 21.6, "excess_pavement_m": 4.0, "kind": "row", "color": "#b42318"}}, {"type": "Feature", "geometry": {"type": "MultiLineString", "coordinates": [[[-79.4071728, 43.7623524], [-79.4065608, 43.7624851], [-79.4061967, 43.762564], [-79.4059786, 43.762608], [-79.405833, 43.7626428], [-79.4058194, 43.7626458], [-79.4056685, 43.7626785], [-79.4055286, 43.7627075], [-79.4051679, 43.762787], [-79.4048003, 43.7628667], [-79.4047168, 43.7628848], [-79.4045825, 43.7629147], [-79.4042825, 43.7629815], [-79.403774, 43.7630948], [-79.4034853, 43.7631591], [-79.4028435, 43.763302], [-79.4023354, 43.7634152], [-79.4022981, 43.7634235], [-79.4021324, 43.7634604], [-79.4018058, 43.7635343], [-79.4013044, 43.7636448], [-79.4006253, 43.763796], [-79.4004271, 43.7638401], [-79.400346, 43.7638582], [-79.4002107, 43.7638426], [-79.399788, 43.7639409], [-79.3996523, 43.7639675], [-79.399542, 43.7639858], [-79.3991387, 43.7640664], [-79.3991263, 43.7640704], [-79.3991177, 43.7640768], [-79.3991095, 43.764085], [-79.399105, 43.7640904], [-79.3990694, 43.7641389], [-79.3989942, 43.7641554], [-79.3987523, 43.7642085], [-79.3982519, 43.7643184], [-79.3976596, 43.7644484], [-79.3970598, 43.76458], [-79.3964976, 43.7647033], [-79.3964572, 43.7647122], [-79.3959573, 43.7648219], [-79.3952003, 43.7649881], [-79.3951574, 43.7649975], [-79.3948202, 43.7650715], [-79.3946839, 43.7651014], [-79.3945874, 43.7651226], [-79.3939436, 43.7652639], [-79.3931051, 43.7654479], [-79.3927361, 43.7655289], [-79.3920089, 43.7656885], [-79.3913452, 43.7658383], [-79.3910966, 43.765894], [-79.3909095, 43.765936], [-79.3907975, 43.7659611], [-79.3906182, 43.7660013], [-79.3900079, 43.7661422], [-79.389791, 43.7662738], [-79.3892907, 43.766365], [-79.3892632, 43.766371], [-79.389182, 43.7663888], [-79.3888706, 43.7664586], [-79.3887175, 43.7664948], [-79.3885626, 43.7665335], [-79.3882518, 43.7666189], [-79.3881093, 43.7666676], [-79.3879322, 43.7667282], [-79.3878019, 43.7667728], [-79.387312, 43.7669472], [-79.3866169, 43.7671391], [-79.3859849, 43.7672688], [-79.3856646, 43.7673422], [-79.3851438, 43.7674613], [-79.3850026, 43.7674938], [-79.3848853, 43.7675195], [-79.3832929, 43.7678689], [-79.3831623, 43.7678999], [-79.3830531, 43.7679231], [-79.3818704, 43.7680858], [-79.3812259, 43.7682092], [-79.381158, 43.7682222], [-79.3808468, 43.7682888], [-79.3805198, 43.7683589], [-79.3803426, 43.7683966], [-79.3801905, 43.7684298], [-79.379774, 43.7685209], [-79.3793051, 43.7686234], [-79.379044, 43.7686805], [-79.3783653, 43.7688289], [-79.3781916, 43.7688669], [-79.3778449, 43.7689427], [-79.3776072, 43.7689947], [-79.377293, 43.7690634]], [[-79.3818704, 43.7680858], [-79.3830032, 43.7677841], [-79.3831134, 43.7677584], [-79.3832443, 43.7677292], [-79.3838311, 43.7675964], [-79.3848193, 43.7673733], [-79.3849333, 43.7673476], [-79.3850658, 43.76732], [-79.3861079, 43.7671024], [-79.3865025, 43.7670153], [-79.3866378, 43.7669854], [-79.387131, 43.7668422], [-79.3872845, 43.766792], [-79.3877794, 43.76663], [-79.3879096, 43.7665894], [-79.3880945, 43.7665284], [-79.3882352, 43.7664831], [-79.3885024, 43.7664118], [-79.3885307, 43.7664034], [-79.3886895, 43.7663643], [-79.3887367, 43.7663548], [-79.3888499, 43.7663271], [-79.3891709, 43.7662559], [-79.389723, 43.7661474], [-79.3900079, 43.7661422]], [[-79.400346, 43.7638582], [-79.4002445, 43.7639326], [-79.3998276, 43.7640261], [-79.3996888, 43.7640555], [-79.3995806, 43.7640792], [-79.3991628, 43.7641714], [-79.3991554, 43.7641723], [-79.3991497, 43.7641727], [-79.3991422, 43.7641725], [-79.3991345, 43.7641711], [-79.3991258, 43.7641682], [-79.3990694, 43.7641389]]]}, "properties": {"id": "sheppard-east-of-bonnington", "label": "Sheppard Avenue East (east of Bonnington Place)", "street": "Sheppard Avenue East", "from_street": "Bonnington Place", "direction": "east", "existing_row_m": 36, "planned_row_m": 36, "travel_width_m": 17.6, "travel_width_varies": true, "lanes": 5, "typical_width_m": 15.6, "excess_pavement_m": 2.0, "kind": "row", "color": "#c47a3a"}}, {"type": "Feature", "geometry": {"type": "MultiLineString", "coordinates": [[[-79.4110154, 43.7615611], [-79.4111991, 43.7615276], [-79.4115775, 43.7614428], [-79.4116198, 43.7613695], [-79.4116649, 43.7613597], [-79.4122379, 43.761232], [-79.4124266, 43.76119], [-79.4129347, 43.7610782], [-79.4131151, 43.761041], [-79.4132852, 43.761003]], [[-79.4109923, 43.7614399], [-79.411167, 43.7614093], [-79.411553, 43.7613208], [-79.4116198, 43.7613695]]]}, "properties": {"id": "sheppard-west-yonge-beecroft", "label": "Sheppard Avenue West (Yonge Street to Beecroft Road)", "street": "Sheppard Avenue West", "from_street": "Yonge Street", "to_street": "Beecroft Road", "existing_row_m": 36, "planned_row_m": 36, "travel_width_m": 25.3, "travel_width_varies": true, "lanes": 7, "typical_width_m": 21.6, "excess_pavement_m": 3.7, "kind": "row", "color": "#b42318"}}, {"type": "Feature", "geometry": {"type": "MultiLineString", "coordinates": [[[-79.4378105, 43.7555164], [-79.4379379, 43.755466], [-79.4382606, 43.7554329], [-79.4383441, 43.7554243], [-79.4384864, 43.7554118], [-79.4386216, 43.7553991], [-79.4388441, 43.7553783], [-79.43893, 43.7553703], [-79.439067, 43.7554058], [-79.4389541, 43.7554748], [-79.4386503, 43.7555014], [-79.4385103, 43.7555137], [-79.4383657, 43.7555236], [-79.4382829, 43.7555292], [-79.4379474, 43.755552], [-79.4378105, 43.7555164], [-79.4373842, 43.7556018], [-79.4372468, 43.7556293], [-79.4369411, 43.7556957], [-79.4363915, 43.7558168], [-79.4361727, 43.7558669], [-79.4354708, 43.7560277], [-79.4353981, 43.7560443], [-79.4348338, 43.756174], [-79.4328367, 43.756633], [-79.4323558, 43.7567417], [-79.4286344, 43.7575787], [-79.4282524, 43.7576644], [-79.4259127, 43.7581826], [-79.4257164, 43.7582284], [-79.4245537, 43.7584993], [-79.4236982, 43.7586817], [-79.4233839, 43.7587487], [-79.4230254, 43.7588362], [-79.4226565, 43.7589259], [-79.4225557, 43.7589504], [-79.4224393, 43.7589749], [-79.4222887, 43.7590066], [-79.4219886, 43.7590698], [-79.4211844, 43.7592399], [-79.4211384, 43.7592497], [-79.4210838, 43.7592612], [-79.4203181, 43.7594371], [-79.4195534, 43.7596056], [-79.4193723, 43.7596455], [-79.4190803, 43.7597099], [-79.4188586, 43.7597586], [-79.4187446, 43.7597839], [-79.4186736, 43.7597998], [-79.4181433, 43.7599226], [-79.4178912, 43.7599807], [-79.4176126, 43.7600444], [-79.4170393, 43.7601754], [-79.4163375, 43.7603358], [-79.4155788, 43.7605108], [-79.4155174, 43.760525], [-79.4153388, 43.7605618], [-79.4151824, 43.760594], [-79.4151399, 43.7606028], [-79.4151238, 43.7606063], [-79.4148882, 43.7606573], [-79.4146343, 43.7607123], [-79.4145014, 43.7607411], [-79.4144105, 43.7607608], [-79.4142067, 43.7608049], [-79.4136885, 43.7609172], [-79.4132852, 43.761003], [-79.4131151, 43.761041]], [[-79.4561089, 43.7518001], [-79.4557807, 43.7518709], [-79.4554354, 43.7519454], [-79.4550956, 43.7520172], [-79.4547729, 43.7520854], [-79.4544216, 43.7521586], [-79.454053, 43.7522355], [-79.45341, 43.7523695], [-79.4529837, 43.7524583], [-79.4528063, 43.7524945], [-79.4526265, 43.7525312], [-79.4521349, 43.7526368], [-79.45196, 43.7526719], [-79.4517944, 43.7527078], [-79.4515866, 43.7527511], [-79.4512326, 43.7528262], [-79.4506359, 43.7529553], [-79.4501723, 43.7530555], [-79.4498717, 43.7531206], [-79.4494932, 43.7532024], [-79.4493295, 43.7532378], [-79.4490035, 43.7533084], [-79.4489366, 43.7533228], [-79.4485261, 43.7534116], [-79.448368, 43.7534458], [-79.448162, 43.7534903], [-79.4480527, 43.753514], [-79.4479676, 43.7535328], [-79.4476011, 43.7536117], [-79.4468739, 43.7537673], [-79.4462202, 43.7539085], [-79.4457694, 43.7540103], [-79.4453206, 43.7541067], [-79.4451587, 43.7541413], [-79.4441303, 43.7543675], [-79.4438685, 43.754419], [-79.4435442, 43.7544927], [-79.443349, 43.7545201], [-79.4431328, 43.754553], [-79.4429296, 43.7546006], [-79.4426362, 43.7546634], [-79.4423369, 43.7547275], [-79.4420954, 43.7547798], [-79.4418013, 43.7548424], [-79.4413937, 43.7549299], [-79.4408546, 43.7550451], [-79.4405301, 43.7551144], [-79.4402658, 43.7551695], [-79.4401094, 43.7552021], [-79.4393835, 43.7553533], [-79.4393325, 43.7553639], [-79.439067, 43.7554058]]]}, "properties": {"id": "sheppard-west-of-beecroft", "label": "Sheppard Avenue West (west of Beecroft Road)", "street": "Sheppard Avenue West", "from_street": "Beecroft Road", "direction": "west", "existing_row_m": 36, "planned_row_m": 36, "travel_width_m": 17.6, "travel_width_varies": true, "lanes": 5, "typical_width_m": 15.6, "excess_pavement_m": 2.0, "kind": "row", "color": "#c47a3a"}}]}