{"type": "FeatureCollection", "features": [{"type": "Feature", "geometry": {"type": "Point", "coordinates": [-79.41374, 43.76944]}, "properties": {"id": "tpa-309", "label": "TPA Car Park 309", "address": "5162 Yonge Street, Toronto", "operator": "Toronto Parking Authority", "clazz": "Public off-street", "table": "3-21", "spaces": 175, "occupancy": "Not available (new lot)", "notes": "New lot as of the 2023 TPA data.", "kind": "parking", "color": "#1f4e79"}}, {"type": "Feature", "geometry": {"type": "Point", "coordinates": [-79.4114238, 43.7705331]}, "properties": {"id": "tpa-400", "label": "TPA Car Park 400", "address": "10 Kingsdale Avenue, Toronto", "operator": "Toronto Parking Authority", "clazz": "Public off-street", "table": "3-21", "spaces": 53, "occupancy": "45%", "kind": "parking", "color": "#1f4e79"}}, {"type": "Feature", "geometry": {"type": "Point", "coordinates": [-79.4120827, 43.7694919]}, "properties": {"id": "tpa-402", "label": "TPA Car Park 402", "address": "10 Empress Avenue, Toronto", "operator": "Toronto Parking Authority", "clazz": "Public off-street", "table": "3-21", "spaces": 67, "occupancy": "95%", "kind": "parking", "color": "#1f4e79"}}, {"type": "Feature", "geometry": {"type": "Point", "coordinates": [-79.4113993, 43.76238]}, "properties": {"id": "tpa-403", "label": "TPA Car Park 403", "address": "10 Harlandale Avenue, Toronto", "operator": "Toronto Parking Authority", "clazz": "Public off-street", "table": "3-21", "spaces": 116, "occupancy": "71%", "notes": "A portion of Car Park 403 is occupied by the TTC for a project.", "kind": "parking", "color": "#1f4e79"}}, {"type": "Feature", "geometry": {"type": "Point", "coordinates": [-79.4136525, 43.7637904]}, "properties": {"id": "tpa-404", "label": "TPA Car Park 404", "address": "95 Beecroft Road, Toronto", "operator": "Toronto Parking Authority", "clazz": "Public off-street", "table": "3-21", "spaces": 386, "occupancy": "16%", "kind": "parking", "color": "#1f4e79"}}, {"type": "Feature", "geometry": {"type": "Point", "coordinates": [-79.4183323, 43.7787365]}, "properties": {"id": "tpa-410", "label": "TPA Car Park 410", "address": "180 Beecroft Road, Toronto", "operator": "Toronto Parking Authority", "clazz": "Public off-street", "table": "3-21", "spaces": 176, "occupancy": "52%", "kind": "parking", "color": "#1f4e79"}}, {"type": "Feature", "geometry": {"type": "Point", "coordinates": [-79.4157652, 43.7795817]}, "properties": {"id": "tpa-412", "label": "TPA Car Park 412", "address": "11 Finch Avenue West, Toronto", "operator": "Toronto Parking Authority", "clazz": "Public off-street", "table": "3-21", "spaces": 62, "occupancy": "97%", "kind": "parking", "color": "#1f4e79"}}, {"type": "Feature", "geometry": {"type": "Point", "coordinates": [-79.41468, 43.76095]}, "properties": {"id": "tpa-418", "label": "TPA Car Park 418", "address": "68 Sheppard Avenue West, Toronto", "operator": "Toronto Parking Authority", "clazz": "Public off-street", "table": "3-21", "spaces": 30, "occupancy": "64%", "kind": "parking", "color": "#1f4e79"}}, {"type": "Feature", "geometry": {"type": "Point", "coordinates": [-79.4157781, 43.7815115]}, "properties": {"id": "tpa-419", "label": "TPA Car Park 419", "address": "5667 Yonge Street, Toronto", "operator": "Toronto Parking Authority", "clazz": "Public off-street", "table": "3-21", "spaces": 23, "occupancy": "48%", "notes": "City-owned portion scheduled to close March 2024.", "kind": "parking", "color": "#1f4e79"}}, {"type": "Feature", "geometry": {"type": "Point", "coordinates": [-79.40842, 43.784]}, "properties": {"id": "ttc-finch-east", "label": "TTC Finch East commuter lot", "address": "890 Willowdale Avenue, Toronto", "operator": "TTC", "clazz": "TTC commuter", "table": "3.5.1", "occupancy": "2023 transactions 43% below 2019", "notes": "Finch East and Finch West lots together have 3,227 spaces.", "kind": "parking", "color": "#5b2c6f"}}, {"type": "Feature", "geometry": {"type": "Point", "coordinates": [-79.41725, 43.78154]}, "properties": {"id": "ttc-finch-west", "label": "TTC Finch West commuter lot", "address": "18 Hendon Avenue, Toronto", "operator": "TTC", "clazz": "TTC commuter", "table": "3.5.1", "occupancy": "2023 transactions 27% below 2019", "notes": "Finch East and Finch West lots together have 3,227 spaces.", "kind": "parking", "color": "#5b2c6f"}}, {"type": "Feature", "geometry": {"type": "Point", "coordinates": [-79.40985, 43.75855]}, "properties": {"id": "priv-td-avondale", "label": "Private lot behind TD", "address": "18 Avondale Avenue, Toronto", "location": "NE Corner Yonge/Avondale", "operator": "Private", "clazz": "Private off-street", "table": "3-26", "spaces": 32, "structure": "Surface", "occupancy": "\u2014", "kind": "parking", "color": "#2e5a3c"}}, {"type": "Feature", "geometry": {"type": "Point", "coordinates": [-79.4108812, 43.76054]}, "properties": {"id": "priv-emerald-park", "label": "Emerald Park Development", "address": "4750 Yonge Street, Toronto", "location": "NW Corner Poyntz/Yonge", "operator": "Private", "clazz": "Private off-street", "table": "3-26", "spaces": 181, "structure": "Underground", "occupancy": "62%", "kind": "parking", "color": "#2e5a3c"}}, {"type": "Feature", "geometry": {"type": "Point", "coordinates": [-79.4080808, 43.7617554]}, "properties": {"id": "priv-serviceontario", "label": "ServiceOntario Complex", "address": "45 Sheppard Avenue East, Toronto", "location": "South side Doris/Sheppard", "operator": "Private", "clazz": "Private off-street", "table": "3-26", "spaces": 421, "structure": "Both", "occupancy": "\u2014", "kind": "parking", "color": "#2e5a3c"}}, {"type": "Feature", "geometry": {"type": "Point", "coordinates": [-79.4121268, 43.7608487]}, "properties": {"id": "priv-nestle", "label": "Nestle Canada \u2014 Vinci parking", "address": "25 Sheppard Avenue West, Toronto", "location": "SE Corner Beecroft/Sheppard", "operator": "Private", "clazz": "Private off-street", "table": "3-26", "spaces": 400, "structure": "Underground", "occupancy": "55%", "kind": "parking", "color": "#2e5a3c"}}, {"type": "Feature", "geometry": {"type": "Point", "coordinates": [-79.41155, 43.76085]}, "properties": {"id": "priv-impark-4800", "label": "Impark lot", "address": "4800 Yonge Street, Toronto", "location": "SW Corner Yonge/Sheppard", "operator": "Impark", "clazz": "Private off-street", "table": "3-26", "spaces": 140, "structure": "Surface", "occupancy": "99% (2016 morning survey)", "kind": "parking", "color": "#2e5a3c"}}, {"type": "Feature", "geometry": {"type": "Point", "coordinates": [-79.4102444, 43.761031]}, "properties": {"id": "priv-hullmark", "label": "Hullmark Building", "address": "4773 Yonge Street, Toronto", "location": "SE Corner Yonge/Sheppard", "operator": "Private", "clazz": "Private off-street", "table": "3-26", "spaces": 305, "structure": "Underground", "occupancy": "76%", "kind": "parking", "color": "#2e5a3c"}}, {"type": "Feature", "geometry": {"type": "Point", "coordinates": [-79.4055208, 43.7632626]}, "properties": {"id": "priv-standard-life", "label": "Standard Life Centre (east of Yonge)", "address": "100 Sheppard Avenue East, Toronto", "location": "NW Corner Kenneth/Sheppard", "operator": "Private", "clazz": "Private off-street", "table": "3-26", "spaces": 330, "structure": "Underground", "occupancy": "\u2014", "kind": "parking", "color": "#2e5a3c"}}, {"type": "Feature", "geometry": {"type": "Point", "coordinates": [-79.4111532, 43.763137]}, "properties": {"id": "priv-sheppard-centre", "label": "Sheppard Centre", "address": "4881 Yonge Street, Toronto", "location": "SE Corner Yonge/Greenfield", "operator": "Private", "clazz": "Private off-street", "table": "3-26", "spaces": 1639, "structure": "Underground", "occupancy": "75% (2016 afternoon survey)", "kind": "parking", "color": "#2e5a3c"}}, {"type": "Feature", "geometry": {"type": "Point", "coordinates": [-79.4128194, 43.7633754]}, "properties": {"id": "priv-joseph-sheppard", "label": "Joseph Sheppard Building", "address": "4900 Yonge Street, Toronto", "location": "NE Corner Beecroft/Elmhurst", "operator": "Private", "clazz": "Private off-street", "table": "3-26", "spaces": 29, "structure": "Surface", "occupancy": "93%", "kind": "parking", "color": "#2e5a3c"}}, {"type": "Feature", "geometry": {"type": "Point", "coordinates": [-79.4127683, 43.7648117]}, "properties": {"id": "priv-madison", "label": "Madison Centre", "address": "4950 Yonge Street, Toronto", "location": "NW Corner Yonge/Upper Madison", "operator": "Private", "clazz": "Private off-street", "table": "3-26", "spaces": 403, "structure": "Underground", "occupancy": "89%", "kind": "parking", "color": "#2e5a3c"}}, {"type": "Feature", "geometry": {"type": "Point", "coordinates": [-79.4128711, 43.7662213]}, "properties": {"id": "priv-5000-yonge", "label": "Office building shared with Centre for the Arts", "address": "5000 Yonge Street, Toronto", "location": "SW Corner Yonge/North York Blvd", "operator": "Private", "clazz": "Private off-street", "table": "3-26", "spaces": 574, "structure": "Underground", "occupancy": "\u2014", "kind": "parking", "color": "#2e5a3c"}}, {"type": "Feature", "geometry": {"type": "Point", "coordinates": [-79.4113914, 43.7661372]}, "properties": {"id": "priv-5001-yonge", "label": "Gilliland Gold Young Consulting", "address": "5001 Yonge Street, Toronto", "location": "NE Corner Yonge/Hollywood", "operator": "Private", "clazz": "Private off-street", "table": "3-26", "spaces": 388, "structure": "Underground", "occupancy": "86%", "kind": "parking", "color": "#2e5a3c"}}, {"type": "Feature", "geometry": {"type": "Point", "coordinates": [-79.4122297, 43.7673719]}, "properties": {"id": "priv-jack-astors", "label": "Private lot behind Jack Astor's", "address": "5061 Yonge Street, Toronto", "location": "NE Corner Yonge/Elmwood", "operator": "Private", "clazz": "Private off-street", "table": "3-26", "spaces": 36, "structure": "Surface", "occupancy": "59%", "kind": "parking", "color": "#2e5a3c"}}, {"type": "Feature", "geometry": {"type": "Point", "coordinates": [-79.4120513, 43.7678437]}, "properties": {"id": "priv-scotia-empress", "label": "Scotiabank at Empress Walk", "address": "5075 Yonge Street, Toronto", "location": "NE Corner Yonge/Hillcrest", "operator": "Private", "clazz": "Private off-street", "table": "3-26", "spaces": 168, "structure": "Underground", "occupancy": "91%", "kind": "parking", "color": "#2e5a3c"}}, {"type": "Feature", "geometry": {"type": "Point", "coordinates": [-79.4119313, 43.7678437]}, "properties": {"id": "priv-empress-walk", "label": "Empress Walk", "address": "5075 Yonge Street, Toronto", "location": "NE Corner Yonge/Hillcrest", "operator": "Private", "clazz": "Private off-street", "table": "3-26", "spaces": 330, "structure": "Underground", "occupancy": "88% (2016 morning survey)", "kind": "parking", "color": "#2e5a3c"}}, {"type": "Feature", "geometry": {"type": "Point", "coordinates": [-79.4119243, 43.7686724]}, "properties": {"id": "priv-loblaws-empress", "label": "Loblaws at Empress Walk", "address": "5095 Yonge Street, Toronto", "location": "SE Corner Yonge/Empress", "operator": "Private", "clazz": "Private off-street", "table": "3-26", "spaces": 220, "structure": "Underground", "occupancy": "79%", "kind": "parking", "color": "#2e5a3c"}}, {"type": "Feature", "geometry": {"type": "Point", "coordinates": [-79.4147848, 43.7684835]}, "properties": {"id": "priv-nyc", "label": "North York Centre", "address": "5160 Yonge Street, Toronto", "location": "SW Corner Yonge/Park Home", "operator": "Private", "clazz": "Private off-street", "table": "3-26", "spaces": 850, "structure": "Underground", "occupancy": "84%", "kind": "parking", "color": "#2e5a3c"}}, {"type": "Feature", "geometry": {"type": "Point", "coordinates": [-79.4153311, 43.7688689]}, "properties": {"id": "priv-gibson", "label": "Gibson Park", "address": "26 Park Home Avenue, Toronto", "location": "NW Corner Yonge/Park Home", "operator": "Private", "clazz": "Private off-street", "table": "3-26", "spaces": 175, "structure": "Underground", "occupancy": "51%", "kind": "parking", "color": "#2e5a3c"}}, {"type": "Feature", "geometry": {"type": "Point", "coordinates": [-79.4124103, 43.7710268]}, "properties": {"id": "priv-parkview", "label": "Private lot", "address": "11 Parkview Avenue, Toronto", "location": "SE Corner Yonge/Parkview", "operator": "Private", "clazz": "Private off-street", "table": "3-26", "spaces": 27, "structure": "Surface", "occupancy": "67%", "kind": "parking", "color": "#2e5a3c"}}, {"type": "Feature", "geometry": {"type": "Point", "coordinates": [-79.4130915, 43.772134]}, "properties": {"id": "priv-yonge-norton", "label": "Yonge Norton Centre", "address": "5255 Yonge Street, Toronto", "location": "SE Corner Yonge/Norton", "operator": "Private", "clazz": "Private off-street", "table": "3-26", "spaces": 301, "structure": "Underground", "occupancy": "74%", "kind": "parking", "color": "#2e5a3c"}}, {"type": "Feature", "geometry": {"type": "Point", "coordinates": [-79.413873, 43.7749378]}, "properties": {"id": "priv-northtown", "label": "Northtown Way Towers", "address": "5 Northtown Way, Toronto", "location": "SE Corner Yonge/Northtown", "operator": "Private", "clazz": "Private off-street", "table": "3-26", "structure": "Underground", "occupancy": "\u2014", "kind": "parking", "color": "#2e5a3c"}}, {"type": "Feature", "geometry": {"type": "Point", "coordinates": [-79.4176628, 43.7739538]}, "properties": {"id": "priv-horsham", "label": "Private lot", "address": "541 Horsham Avenue, Toronto", "location": "SW Corner Yonge/Horsham", "operator": "Private", "clazz": "Private off-street", "table": "3-26", "spaces": 38, "structure": "Surface", "occupancy": "45%", "kind": "parking", "color": "#2e5a3c"}}, {"type": "Feature", "geometry": {"type": "Point", "coordinates": [-79.4159022, 43.7789824]}, "properties": {"id": "priv-shoppers", "label": "Private lot behind Shoppers", "address": "5576 Yonge Street, Toronto", "location": "NW Corner Yonge/Tolman", "operator": "Private", "clazz": "Private off-street", "table": "3-26", "spaces": 55, "structure": "Surface", "occupancy": "95%", "kind": "parking", "color": "#2e5a3c"}}, {"type": "Feature", "geometry": {"type": "Point", "coordinates": [-79.4170341, 43.7792385]}, "properties": {"id": "priv-15-finch", "label": "Private lot", "address": "15 Finch Avenue West, Toronto", "location": "SW Corner Yonge/Finch", "operator": "Private", "clazz": "Private off-street", "table": "3-26", "spaces": 7, "structure": "Surface", "occupancy": "\u2014", "kind": "parking", "color": "#2e5a3c"}}, {"type": "Feature", "geometry": {"type": "Point", "coordinates": [-79.41733, 43.77982]}, "properties": {"id": "priv-xerox", "label": "Xerox Towers", "address": "2 Finch Avenue West, Toronto", "location": "NW Corner Yonge/Finch", "operator": "Private", "clazz": "Private off-street", "table": "3-26", "spaces": 1630, "structure": "Underground", "occupancy": "\u2014", "kind": "parking", "color": "#2e5a3c"}}, {"type": "Feature", "geometry": {"type": "Point", "coordinates": [-79.4159562, 43.7833314]}, "properties": {"id": "priv-5775", "label": "5775 Yonge Street", "address": "5775 Yonge Street, Toronto", "location": "SE Corner Yonge/Turnberry", "operator": "Private", "clazz": "Private off-street", "table": "3-26", "spaces": 371, "structure": "Underground", "occupancy": "\u2014", "kind": "parking", "color": "#2e5a3c"}}, {"type": "Feature", "geometry": {"type": "Point", "coordinates": [-79.417206, 43.787033]}, "properties": {"id": "priv-food-basics", "label": "Food Basics Plaza", "address": "5915 Yonge Street, Toronto", "location": "SE Corner Yonge/Cummer", "operator": "Private", "clazz": "Private off-street", "table": "3-26", "spaces": 632, "structure": "Surface", "occupancy": "\u2014", "kind": "parking", "color": "#2e5a3c"}}, {"type": "Feature", "geometry": {"type": "Point", "coordinates": [-79.4173025, 43.7861796]}, "properties": {"id": "priv-5906", "label": "Private plaza parking", "address": "5906 Yonge Street, Toronto", "location": "SW Corner Yonge/Drewry", "operator": "Private", "clazz": "Private off-street", "table": "3-26", "spaces": 63, "structure": "Surface", "occupancy": "\u2014", "kind": "parking", "color": "#2e5a3c"}}, {"type": "Feature", "geometry": {"type": "Point", "coordinates": [-79.41775, 43.78732]}, "properties": {"id": "priv-5928", "label": "Private plaza parking", "address": "5928 Yonge Street, Toronto", "location": "NW Corner Yonge/Drewry", "operator": "Private", "clazz": "Private off-street", "table": "3-26", "spaces": 49, "structure": "Surface", "occupancy": "\u2014", "kind": "parking", "color": "#2e5a3c"}}]}